NETSAT-1
1 46506U 20068W   26068.94628138  .00018269  00000-0  59222-3 0  9999
2 46506  97.8751  63.2583 0005734  18.5877 341.5572 15.32042482300092
ALTAIR (RS65S)
1 61779U 24199AW  26068.89715937  .00009293  00000-0  27542-3 0  9992
2 61779  97.3179 298.9542 0012036 307.5319  52.4830 15.34998047121878
